{"type": "FeatureCollection", "features": [ {"type": "Feature", "properties": {"norad_id": 43010, "name": "FENGYUN 3D", "group": "weather", "lat": -17.022297424242463, "lon": -54.69227006988839, "alt_km": 831.4374009249677, "timestamp": "2025-12-02T08:59:32.362394+00:00", "meta": {"OBJECT_NAME": "FENGYUN 3D", "OBJECT_ID": "2017-072A", "EPOCH": "2025-12-02T03:59:56.177088", "MEAN_MOTION": 14.19678683, "ECCENTRICITY": 5.52e-05, "INCLINATION": 98.9878, "RA_OF_ASC_NODE": 302.3193, "ARG_OF_PERICENTER": 229.1037, "MEAN_ANOMALY": 131.0091, "EPHEMERIS_TYPE": 0, "CLASSIFICATION_TYPE": "U", "NORAD_CAT_ID": 43010, "ELEMENT_SET_NO": 999, "REV_AT_EPOCH": 41703, "BSTAR": 8.6032e-05, "MEAN_MOTION_DOT": 1.36e-06, "MEAN_MOTION_DDOT": 0}, "tle": {"line1": "1 43010U 17072A   25336.16662242  .00000136  00000+0  86032-4 0  9995", "line2": "2 43010  98.9878 302.3193 0000552 229.1037 131.0091 14.19678683417039"}}, "geometry": {"type": "Point", "coordinates": [-54.69227006988839, -17.022297424242463]}}, {"type": "Feature", "properties": {"norad_id": 43013, "name": "NOAA 20 (JPSS-1)", "group": "weather", "lat": 38.06750885833369, "lon": 99.72011306166871, "alt_km": 822.9767033682829, "timestamp": "2025-12-02T08:59:32.362405+00:00", "meta": {"OBJECT_NAME": "NOAA 20 (JPSS-1)", "OBJECT_ID": "2017-073A", "EPOCH": "2025-12-02T03:15:14.475744", "MEAN_MOTION": 14.19521073, "ECCENTRICITY": 0.0002046, "INCLINATION": 98.7583, "RA_OF_ASC_NODE": 272.5491, "ARG_OF_PERICENTER": 102.364, "MEAN_ANOMALY": 257.7765, "EPHEMERIS_TYPE": 0, "CLASSIFICATION_TYPE": "U", "NORAD_CAT_ID": 43013, "ELEMENT_SET_NO": 999, "REV_AT_EPOCH": 41651, "BSTAR": 7.648e-05, "MEAN_MOTION_DOT": 1.17e-06, "MEAN_MOTION_DDOT": 0}, "tle": {"line1": "1 43013U 17073A   25336.13558421  .00000117  00000+0  76480-4 0  9994", "line2": "2 43013  98.7583 272.5491 0002046 102.3640 257.7765 14.19521073416510"}}, "geometry": {"type": "Point", "coordinates": [99.72011306166871, 38.06750885833369]}}, {"type": "Feature", "properties": {"norad_id": 43226, "name": "GOES 17", "group": "weather", "lat": 0.20512725182274782, "lon": 116.81462052350585, "alt_km": 35799.6715847369, "timestamp": "2025-12-02T08:59:32.362425+00:00", "meta": {"OBJECT_NAME": "GOES 17", "OBJECT_ID": "2018-022A", "EPOCH": "2025-12-02T03:05:09.477024", "MEAN_MOTION": 1.00269914, "ECCENTRICITY": 0.0003463, "INCLINATION": 0.4298, "RA_OF_ASC_NODE": 89.3598, "ARG_OF_PERICENTER": 180.8774, "MEAN_ANOMALY": 117.7878, "EPHEMERIS_TYPE": 0, "CLASSIFICATION_TYPE": "U", "NORAD_CAT_ID": 43226, "ELEMENT_SET_NO": 999, "REV_AT_EPOCH": 2844, "BSTAR": 0, "MEAN_MOTION_DOT": -1.61e-06, "MEAN_MOTION_DDOT": 0}, "tle": {"line1": "1 43226U 18022A   25336.12858191 -.00000161  00000+0  00000+0 0  9991", "line2": "2 43226   0.4298  89.3598 0003463 180.8774 117.7878  1.00269914 28444"}}, "geometry": {"type": "Point", "coordinates": [116.81462052350585, 0.20512725182274782]}}, {"type": "Feature", "properties": {"norad_id": 43491, "name": "FENGYUN 2H", "group": "weather", "lat": -1.049368602395987, "lon": -74.29875204013125, "alt_km": 35777.440442898245, "timestamp": "2025-12-02T08:59:32.362440+00:00", "meta": {"OBJECT_NAME": "FENGYUN 2H", "OBJECT_ID": "2018-050A", "EPOCH": "2025-12-02T02:10:37.269696", "MEAN_MOTION": 1.00271571, "ECCENTRICITY": 0.0002844, "INCLINATION": 2.521, "RA_OF_ASC_NODE": 81.4468, "ARG_OF_PERICENTER": 161.4684, "MEAN_ANOMALY": 300.2994, "EPHEMERIS_TYPE": 0, "CLASSIFICATION_TYPE": "U", "NORAD_CAT_ID": 43491, "ELEMENT_SET_NO": 999, "REV_AT_EPOCH": 2746, "BSTAR": 0, "MEAN_MOTION_DOT": -1.09e-06, "MEAN_MOTION_DDOT": 0}, "tle": {"line1": "1 43491U 18050A   25336.09070914 -.00000109  00000+0  00000+0 0  9993", "line2": "2 43491   2.5210  81.4468 0002844 161.4684 300.2994  1.00271571 27462"}}, "geometry": {"type": "Point", "coordinates": [-74.29875204013125, -1.049368602395987]}}, {"type": "Feature", "properties": {"norad_id": 43689, "name": "METOP-C", "group": "weather", "lat": -28.35778472125859, "lon": -150.4352240790875, "alt_km": 827.1352409403125, "timestamp": "2025-12-02T08:59:32.362451+00:00", "meta": {"OBJECT_NAME": "METOP-C", "OBJECT_ID": "2018-087A", "EPOCH": "2025-12-02T04:38:07.759104", "MEAN_MOTION": 14.21505295, "ECCENTRICITY": 0.0001749, "INCLINATION": 98.6945, "RA_OF_ASC_NODE": 34.1236, "ARG_OF_PERICENTER": 59.4741, "MEAN_ANOMALY": 300.6608, "EPHEMERIS_TYPE": 0, "CLASSIFICATION_TYPE": "U", "NORAD_CAT_ID": 43689, "ELEMENT_SET_NO": 999, "REV_AT_EPOCH": 36684, "BSTAR": 9.8625e-05, "MEAN_MOTION_DOT": 1.72e-06, "MEAN_MOTION_DDOT": 0}, "tle": {"line1": "1 43689U 18087A   25336.19314536  .00000172  00000+0  98625-4 0  9998", "line2": "2 43689  98.6945  34.1236 0001749  59.4741 300.6608 14.21505295366847"}}, "geometry": {"type": "Point", "coordinates": [-150.4352240790875, -28.35778472125859]}}, {"type": "Feature", "properties": {"norad_id": 43823, "name": "GEO-KOMPSAT-2A", "group": "weather", "lat": -0.025877254164212608, "lon": -25.392568729162047, "alt_km": 35788.375821992886, "timestamp": "2025-12-02T08:59:32.362462+00:00", "meta": {"OBJECT_NAME": "GEO-KOMPSAT-2A", "OBJECT_ID": "2018-100A", "EPOCH": "2025-12-01T23:15:38.582784", "MEAN_MOTION": 1.00270755, "ECCENTRICITY": 5.77e-05, "INCLINATION": 0.0611, "RA_OF_ASC_NODE": 123.5335, "ARG_OF_PERICENTER": 67.7491, "MEAN_ANOMALY": 356.9772, "EPHEMERIS_TYPE": 0, "CLASSIFICATION_TYPE": "U", "NORAD_CAT_ID": 43823, "ELEMENT_SET_NO": 999, "REV_AT_EPOCH": 2565, "BSTAR": 0, "MEAN_MOTION_DOT": -3.22e-06, "MEAN_MOTION_DDOT": 0}, "tle": {"line1": "1 43823U 18100A   25335.96919656 -.00000322  00000+0  00000+0 0  9995", "line2": "2 43823   0.0611 123.5335 0000577  67.7491 356.9772  1.00270755 25659"}}, "geometry": {"type": "Point", "coordinates": [-25.392568729162047, -0.025877254164212608]}}, {"type": "Feature", "properties": {"norad_id": 44387, "name": "METEOR-M2 2", "group": "weather", "lat": 1.1608736225024008, "lon": 136.1591034209063, "alt_km": 813.0822916455963, "timestamp": "2025-12-02T08:59:32.362473+00:00", "meta": {"OBJECT_NAME": "METEOR-M2 2", "OBJECT_ID": "2019-038A", "EPOCH": "2025-12-02T03:05:52.518912", "MEAN_MOTION": 14.24284016, "ECCENTRICITY": 8.15e-05, "INCLINATION": 98.8962, "RA_OF_ASC_NODE": 315.7287, "ARG_OF_PERICENTER": 170.9582, "MEAN_ANOMALY": 189.1611, "EPHEMERIS_TYPE": 0, "CLASSIFICATION_TYPE": "U", "NORAD_CAT_ID": 44387, "ELEMENT_SET_NO": 999, "REV_AT_EPOCH": 33324, "BSTAR": 0.00010896, "MEAN_MOTION_DOT": 2.06e-06, "MEAN_MOTION_DDOT": 0}, "tle": {"line1": "1 44387U 19038A   25336.12908008  .00000206  00000+0  10896-3 0  9998", "line2": "2 44387  98.8962 315.7287 0000815 170.9582 189.1611 14.24284016333243"}}, "geometry": {"type": "Point", "coordinates": [136.1591034209063, 1.1608736225024008]}}, {"type": "Feature", "properties": {"norad_id": 47719, "name": "ARKTIKA-M 1", "group": "weather", "lat": 62.6390020993235, "lon": -172.25669600889955, "alt_km": 38513.279551664906, "timestamp": "2025-12-02T08:59:32.362487+00:00", "meta": {"OBJECT_NAME": "ARKTIKA-M 1", "OBJECT_ID": "2021-016A", "EPOCH": "2025-12-01T02:41:41.634816", "MEAN_MOTION": 2.00613156, "ECCENTRICITY": 0.7197471, "INCLINATION": 63.1756, "RA_OF_ASC_NODE": 85.6045, "ARG_OF_PERICENTER": 269.084, "MEAN_ANOMALY": 15.7076, "EPHEMERIS_TYPE": 0, "CLASSIFICATION_TYPE": "U", "NORAD_CAT_ID": 47719, "ELEMENT_SET_NO": 999, "REV_AT_EPOCH": 3481, "BSTAR": 0, "MEAN_MOTION_DOT": -1.2e-07, "MEAN_MOTION_DDOT": 0}, "tle": {"line1": "1 47719U 21016A   25335.11228744 -.00000012  00000+0  00000+0 0  9997", "line2": "2 47719  63.1756  85.6045 7197471 269.0840  15.7076  2.00613156 34817"}}, "geometry": {"type": "Point", "coordinates": [-172.25669600889955, 62.6390020993235]}}, {"type": "Feature", "properties": {"norad_id": 49008, "name": "FENGYUN 3E", "group": "weather", "lat": -56.59915564649074, "lon": -9.478033901424132, "alt_km": 832.2800305376986, "timestamp": "2025-12-02T08:59:32.362500+00:00", "meta": {"OBJECT_NAME": "FENGYUN 3E", "OBJECT_ID": "2021-062A", "EPOCH": "2025-12-01T21:25:28.625952", "MEAN_MOTION": 14.19877598, "ECCENTRICITY": 8.25e-05, "INCLINATION": 98.7476, "RA_OF_ASC_NODE": 336.5425, "ARG_OF_PERICENTER": 332.6664, "MEAN_ANOMALY": 27.4469, "EPHEMERIS_TYPE": 0, "CLASSIFICATION_TYPE": "U", "NORAD_CAT_ID": 49008, "ELEMENT_SET_NO": 999, "REV_AT_EPOCH": 22858, "BSTAR": 4.1333e-05, "MEAN_MOTION_DOT": 4.4e-07, "MEAN_MOTION_DDOT": 0}, "tle": {"line1": "1 49008U 21062A   25335.89269243  .00000044  00000+0  41333-4 0  9998", "line2": "2 49008  98.7476 336.5425 0000825 332.6664  27.4469 14.19877598228583"}}, "geometry": {"type": "Point", "coordinates": [-9.478033901424132, -56.59915564649074]}}, {"type": "Feature", "properties": {"norad_id": 51850, "name": "GOES 18", "group": "weather", "lat": -0.0021377137216582014, "lon": 69.34308105847366, "alt_km": 35788.72182531256, "timestamp": "2025-12-02T08:59:32.362513+00:00", "meta": {"OBJECT_NAME": "GOES 18", "OBJECT_ID": "2022-021A", "EPOCH": "2025-12-02T02:51:33.280416", "MEAN_MOTION": 1.00270121, "ECCENTRICITY": 6.65e-05, "INCLINATION": 0.0107, "RA_OF_ASC_NODE": 75.353, "ARG_OF_PERICENTER": 212.7021, "MEAN_ANOMALY": 49.0652, "EPHEMERIS_TYPE": 0, "CLASSIFICATION_TYPE": "U", "NORAD_CAT_ID": 51850, "ELEMENT_SET_NO": 999, "REV_AT_EPOCH": 461, "BSTAR": 0, "MEAN_MOTION_DOT": 1.18e-06, "MEAN_MOTION_DDOT": 0}, "tle": {"line1": "1 51850U 22021A   25336.11913519  .00000118  00000+0  00000+0 0  9993", "line2": "2 51850   0.0107  75.3530 0000665 212.7021  49.0652  1.00270121  4615"}}, "geometry": {"type": "Point", "coordinates": [69.34308105847366, -0.0021377137216582014]}}]}